{"type": "FeatureCollection", "features": [{"type": "Feature", "properties": {"klasse": "Siedlung"}, "geometry": {"type": "Polygon", "coordinates": [[[8.2026363, 48.9258558], [8.2025757, 48.9258313], [8.2025094, 48.925902], [8.20257, 48.925926499999996], [8.2026363, 48.9258558]]]}}, {"type": "Feature", "properties": {"klasse": "Siedlung"}, "geometry": {"type": "Polygon", "coordinates": [[[8.2029917, 48.92670270000001], [8.2033865, 48.926926], [8.2035386, 48.926831699999994], [8.2046391, 48.92621690000001], [8.2045288, 48.926089], [8.2043485, 48.9260258], [8.204211296185974, 48.925672420722414], [8.20349431646661, 48.925672420722414], [8.2034587, 48.9256904], [8.2032545, 48.925685599999994], [8.2029203, 48.9257372], [8.2021713, 48.926483899999994], [8.202893, 48.9267627], [8.2029917, 48.92670270000001]]]}}, {"type": "Feature", "properties": {"klasse": "Siedlung"}, "geometry": {"type": "Polygon", "coordinates": [[[8.203429, 48.933585199999996], [8.2033054, 48.9333857], [8.2030985, 48.93344099999999], [8.2031834, 48.933578], [8.2032459, 48.9335612], [8.2032846, 48.9336238], [8.203429, 48.933585199999996]]]}}, {"type": "Feature", "properties": {"klasse": "Siedlung"}, "geometry": {"type": "Polygon", "coordinates": [[[8.2047837, 48.93459109999999], [8.2047618, 48.93469399999999], [8.2048462, 48.93470179999999], [8.2048682, 48.9345989], [8.2047837, 48.93459109999999]]]}}, {"type": "Feature", "properties": {"klasse": "Siedlung"}, "geometry": {"type": "Polygon", "coordinates": [[[8.2050964, 48.92604749999999], [8.2051482, 48.926117299999994], [8.2051945, 48.9261023], [8.2051425, 48.92603269999999], [8.2050964, 48.92604749999999]]]}}, {"type": "Feature", "properties": {"klasse": "Siedlung"}, "geometry": {"type": "Polygon", "coordinates": [[[8.205402776903359, 48.92884573096492], [8.2053202, 48.928835], [8.2052979, 48.9296182], [8.2053054, 48.9298009], [8.2053018, 48.929889900000006], [8.2051329, 48.92988269999999], [8.2052441, 48.9301764], [8.2053377, 48.930453699999994], [8.2053723, 48.930483], [8.2053771, 48.93068529999999], [8.2051014, 48.93068340000001], [8.2051058, 48.93035049999999], [8.2049974, 48.9302743], [8.2044319, 48.9305236], [8.2045803, 48.93077200000001], [8.2032688, 48.930952899999994], [8.2038067, 48.931845399999986], [8.204043, 48.93224039999999], [8.2043973, 48.9328305], [8.2045204, 48.93281209999999], [8.2048796, 48.93334569999999], [8.2054808, 48.9341644], [8.2055552, 48.934183399999995], [8.2057558, 48.93417970000001], [8.2057567, 48.93449439999999], [8.2058425, 48.9347845], [8.2057884, 48.93512989999999], [8.2057829, 48.93516799999999], [8.2057431, 48.935442], [8.2055372, 48.9354401], [8.205311947772945, 48.93606459959545], [8.205535790511215, 48.93606459959545], [8.20562369878636, 48.93606459959545], [8.206583022054653, 48.93606459959545], [8.206739900986088, 48.93606459959545], [8.20689603137444, 48.93606459959545], [8.206927660970905, 48.93606459959545], [8.207542211626421, 48.93606459959545], [8.20767987757208, 48.93606459959545], [8.207967057145952, 48.93606459959545], [8.20812306747707, 48.93606459959545], [8.208241257530153, 48.93606459959545], [8.208422584252864, 48.93606459959545], [8.208630379639441, 48.93606459959545], [8.208909703978225, 48.93606459959545], [8.208909703978225, 48.93528903502491], [8.208909703978225, 48.93524010593813], [8.208909703978225, 48.935000607575994], [8.208909703978225, 48.93487786245327], [8.208909703978225, 48.934617081760386], [8.208909703978225, 48.934599562813446], [8.208909703978225, 48.934274182385394], [8.208909703978225, 48.93422188365815], [8.208909703978225, 48.93399882786253], [8.208909703978225, 48.93384715857447], [8.208909703978225, 48.93372134351454], [8.208909703978225, 48.933671327259354], [8.208909703978225, 48.93277953143948], [8.208909703978225, 48.93272686973557], [8.208909703978225, 48.93268603300394], [8.208909703978225, 48.932613276518225], [8.208909703978225, 48.932574703640306], [8.208909703978225, 48.932478718419], [8.208909703978225, 48.93231494721566], [8.208909703978225, 48.93224593958171], [8.208909703978225, 48.932149757684144], [8.208909703978225, 48.93200356233236], [8.208909703978225, 48.93192943127039], [8.208909703978225, 48.93186167256391], [8.208909703978225, 48.93146383141359], [8.2088757, 48.9314443], [8.2082148, 48.9309457], [8.2081293, 48.9308949], [8.207936, 48.930780600000006], [8.2077527, 48.9306865], [8.2073394, 48.9305225], [8.2078471, 48.92975069999999], [8.2077709, 48.929727199999995], [8.2079898, 48.9294422], [8.2080411, 48.929421600000005], [8.2079529, 48.92938550000001], [8.2064685, 48.9289429], [8.205693, 48.9289083], [8.2056888, 48.92888289999999], [8.205420940860764, 48.928848091392375], [8.2054211, 48.9288465], [8.205402776903359, 48.92884573096492]]]}}, {"type": "Feature", "properties": {"klasse": "Siedlung"}, "geometry": {"type": "Polygon", "coordinates": [[[8.2055502, 48.93426869999999], [8.2054306, 48.9342726], [8.205435, 48.93432909999999], [8.2055545, 48.9343252], [8.2055502, 48.93426869999999]]]}}, {"type": "Feature", "properties": {"klasse": "Siedlung"}, "geometry": {"type": "Polygon", "coordinates": [[[8.2055699, 48.9345524], [8.2055619, 48.93455029999999], [8.2055389, 48.9345506], [8.2055383, 48.93452779999999], [8.2055171, 48.934528], [8.205514, 48.934416399999996], [8.2053715, 48.934418199999996], [8.2053301, 48.93441870000001], [8.2053334, 48.934539900000004], [8.2053045, 48.9345415], [8.2053073, 48.934621299999996], [8.2053765, 48.9346206], [8.2055637, 48.93461899999999], [8.2055618, 48.9346044], [8.2056202, 48.934604400000005], [8.2056203, 48.9345524], [8.2055699, 48.9345524]]]}}, {"type": "Feature", "properties": {"klasse": "Siedlung"}, "geometry": {"type": "Polygon", "coordinates": [[[8.2081603, 48.929329899999985], [8.208745, 48.9295452], [8.208909703978225, 48.92961234528056], [8.208909703978225, 48.929022521404036], [8.208909703978225, 48.92900863522194], [8.208909703978225, 48.92887243712024], [8.208909703978225, 48.92877848934647], [8.208909703978225, 48.92846971308236], [8.208909703978225, 48.92842111698135], [8.208909703978225, 48.92819480843427], [8.208909703978225, 48.92806089534834], [8.208909703978225, 48.92764715932248], [8.208909703978225, 48.92762511967448], [8.208909703978225, 48.9269957031936], [8.208909703978225, 48.926964104615806], [8.208909703978225, 48.92689702740463], [8.208909703978225, 48.92682207422959], [8.208909703978225, 48.92656510195661], [8.208909703978225, 48.92649443202755], [8.208909703978225, 48.92644933345393], [8.208909703978225, 48.926172778514115], [8.20888, 48.926187299999995], [8.2085163, 48.9264393], [8.20726, 48.92744090000001], [8.206565000000001, 48.92720330000001], [8.2062672, 48.92711469999999], [8.2059086, 48.92736550000001], [8.2053591, 48.92780140000001], [8.2056055, 48.927912899999995], [8.2056963, 48.92795399999999], [8.2053817, 48.928383], [8.2058219, 48.92858629999999], [8.205838500000002, 48.928569100000004], [8.2059944, 48.92862949999999], [8.206484, 48.9286921], [8.2066341, 48.928530099999996], [8.2065786, 48.928509999999996], [8.2066503, 48.92845789999999], [8.2071188, 48.92868079999999], [8.2069273, 48.92893419999999], [8.2074255, 48.92907979999999], [8.2081603, 48.929329899999985]]]}}, {"type": "Feature", "properties": {"klasse": "Siedlung"}, "geometry": {"type": "Polygon", "coordinates": [[[8.207743, 48.9301923], [8.2077968, 48.930208199999996], [8.2078618, 48.9301928], [8.207846, 48.930160099999995], [8.2077507, 48.930181399999995], [8.207743, 48.9301923]]]}}, {"type": "Feature", "properties": {"klasse": "Siedlung"}, "geometry": {"type": "Polygon", "coordinates": [[[8.2075249, 48.9304817], [8.2075501, 48.9304481], [8.2074813, 48.93042379999999], [8.2074644, 48.930446899999986], [8.2074885, 48.9304672], [8.2075249, 48.9304817]]]}}, {"type": "Feature", "properties": {"klasse": "Siedlung"}, "geometry": {"type": "Polygon", "coordinates": [[[8.2082548, 48.929852399999994], [8.2082411, 48.92982750000001], [8.2080651, 48.9298676], [8.2080804, 48.929893], [8.2080544, 48.9299008], [8.2080435, 48.9299166], [8.208019, 48.92990979999999], [8.2079394, 48.9300239], [8.2079589, 48.930031799999995], [8.2079472, 48.93005049999999], [8.2079543, 48.93006679999999], [8.2079376, 48.9300685], [8.2079838, 48.9301706], [8.2081334, 48.93021519999999], [8.2081582, 48.9301822], [8.2081809, 48.930174699999995], [8.2081939, 48.9301861], [8.2082772, 48.9301676], [8.2082752, 48.93016050000001], [8.2083548, 48.9301408], [8.208353, 48.930135899999996], [8.2084341, 48.9301159], [8.2084391, 48.93010679999998], [8.2085168, 48.93008929999999], [8.208518, 48.93008089999999], [8.2086027, 48.9300609], [8.2085969, 48.930051299999995], [8.2086761, 48.9300325], [8.2087232, 48.930049499999996], [8.208763500000002, 48.9301215], [8.2088507, 48.93010039999999], [8.208847, 48.930093799999995], [8.208909703978225, 48.930078645894284], [8.208909703978225, 48.93004138703327], [8.2088962, 48.93001730000001], [8.2088677, 48.93000109999999], [8.2088159, 48.92988999999999], [8.2089005, 48.929873], [8.208909703978225, 48.929887082411916], [8.208909703978225, 48.9298651452422], [8.208909703978225, 48.92983753998335], [8.2088872, 48.929842099999995], [8.2088852, 48.929837799999994], [8.2088473, 48.929845399999984], [8.2088403, 48.929830499999994], [8.2087864, 48.929841399999994], [8.2087893, 48.92984760000001], [8.2087615, 48.929853099999995], [8.2087558, 48.929841], [8.2086874, 48.9298547], [8.2087113, 48.92990619999999], [8.2086166, 48.92992519999999], [8.2086123, 48.9299417], [8.2086296, 48.9299738], [8.2086559, 48.9299805], [8.2086702, 48.9300065], [8.2085835, 48.93002709999999], [8.2085367, 48.9299308], [8.2085236, 48.929936500000004], [8.208481300000003, 48.92991690000001], [8.208492, 48.9298959], [8.2083198, 48.929839300000005], [8.2083051, 48.9298589], [8.2082837, 48.92984849999999], [8.2082548, 48.929852399999994]]]}}, {"type": "Feature", "properties": {"klasse": "Siedlung"}, "geometry": {"type": "Polygon", "coordinates": [[[8.2080555, 48.93062650000001], [8.2080377, 48.93064989999999], [8.2081339, 48.9306811], [8.2080906, 48.9307348], [8.2082879, 48.9308549], [8.208373, 48.93079339999999], [8.2083525, 48.9307864], [8.2084603, 48.93065169999999], [8.2084451, 48.93064559999999], [8.208485, 48.930591500000006], [8.2084533, 48.93058150000001], [8.208506, 48.93050989999999], [8.208438, 48.93048830000001], [8.2084508, 48.930470899999996], [8.2083526, 48.93043959999999], [8.2083047, 48.9305045], [8.2082316, 48.930481199999996], [8.2082584, 48.93044489999999], [8.2081204, 48.930400999999996], [8.2081126, 48.93040529999999], [8.2080905, 48.930396099999996], [8.2080703, 48.930364299999994], [8.208082, 48.93034720000001], [8.2080908, 48.930348], [8.2081503, 48.93027059999999], [8.2080751, 48.930245599999985], [8.2080589, 48.93026669999999], [8.208036, 48.930259199999995], [8.2079926, 48.9303157], [8.2079653, 48.930306699999996], [8.2079219, 48.9303634], [8.2078895, 48.93035270000001], [8.2078439, 48.9304123], [8.2078583, 48.9304171], [8.2078435, 48.9304366], [8.2077415, 48.93040299999999], [8.2076938, 48.9304656], [8.2077201, 48.93047419999999], [8.207677, 48.930531], [8.2077834, 48.9305659], [8.2078135, 48.93052629999998], [8.2079025, 48.93055549999999], [8.207932, 48.930516600000004], [8.2079636, 48.93052699999999], [8.2079469, 48.9305489], [8.2080022, 48.930566999999996], [8.2080102, 48.930556499999994], [8.208051, 48.930569999999996], [8.2080175, 48.93061389999999], [8.2080555, 48.93062650000001]], [[8.2084104, 48.93061809999999], [8.2084093, 48.9306199], [8.2083623, 48.930605099999994], [8.2084104, 48.93061809999999]]]}}, {"type": "Feature", "properties": {"klasse": "Siedlung"}, "geometry": {"type": "Polygon", "coordinates": [[[8.2086958, 48.930374], [8.2086746, 48.9304084], [8.2087355, 48.93042709999999], [8.2087752, 48.9304168], [8.2087979, 48.9303842], [8.2087284, 48.9303637], [8.2086958, 48.930374]]]}}, {"type": "Feature", "properties": {"klasse": "Straße"}, "geometry": {"type": "Polygon", "coordinates": [[[8.204375880250828, 48.925672420722414], [8.20437346966832, 48.925672420722414], [8.204277804543851, 48.925672420722414], [8.204223445228024, 48.925672420722414], [8.204063157878817, 48.925672420722414], [8.203621889085685, 48.925672420722414], [8.203289724568497, 48.925672420722414], [8.203273490015116, 48.92569067313596], [8.20325966277362, 48.92571034871162], [8.203248775397098, 48.92573081031571], [8.203240929102561, 48.92575186772899], [8.203236196836226, 48.925773325193184], [8.20323462259524, 48.92579498323069], [8.203236221018521, 48.92581664049902], [8.203240977250513, 48.92583809566262], [8.203248847079134, 48.92585914926453], [8.203259757346661, 48.92587960558061], [8.203273606629681, 48.92589927443917], [8.203290266181863, 48.925917972988856], [8.20330958113073, 48.92593552739858], [8.203372134582603, 48.92598696539638], [8.203372346952813, 48.92598778602562], [8.203374375163076, 48.925996617848874], [8.203375160885056, 48.925998659467204], [8.203375698203278, 48.926000735742605], [8.203379275718397, 48.926009351441444], [8.203382607893014, 48.926018009756916], [8.203383693520774, 48.926019990796846], [8.203384537094975, 48.92602202236933], [8.203389378960905, 48.926030365516766], [8.203393983006535, 48.92603876692154], [8.203395358084949, 48.92604066830378], [8.203396499791664, 48.92604263560886], [8.20340255938005, 48.9260506258556], [8.203408390958426, 48.92605868943904], [8.203410042245029, 48.92606049285212], [8.20341147108928, 48.926062376943484], [8.203418690044288, 48.926069937338816], [8.203425692994987, 48.92607758544357], [8.203427604587135, 48.92607927351947], [8.203429306808669, 48.92608105625225], [8.20343761560852, 48.9260881139847], [8.20344207591216, 48.92609205275954], [8.20256264028694, 48.92660442440789], [8.2025386679624, 48.92661983615408], [8.202517103561043, 48.92663672198674], [8.202498154760542, 48.926654919287465], [8.202482004049736, 48.92667425280765], [8.202468806971078, 48.92669453635609], [8.20245869062261, 48.926715574592194], [8.202451752433815, 48.92673716490708], [8.202448059227184, 48.926759099374806], [8.202447646574528, 48.926781166754765], [8.202450518454246, 48.92680315452612], [8.202456647212832, 48.92682485093435], [8.202465973831039, 48.92684604703075], [8.20247840849211, 48.926866538684564], [8.202493831446622, 48.926886128548965], [8.202512094165607, 48.92690462796178], [8.202533020770884, 48.926921858762206], [8.202556409728789, 48.92693765500689], [8.20258203579101, 48.92695186456792], [8.202609652163856, 48.92696435059807], [8.202638992885035, 48.926974992848706], [8.202669775385077, 48.92698368882795], [8.202701703208723, 48.9269903547877], [8.202734468870059, 48.92699492653032], [8.202767756813914, 48.92699736002682], [8.202801246454978, 48.92699763184096], [8.202834615265376, 48.92699573935497], [8.202867541880954, 48.92699170079475], [8.202899709196355, 48.92698555505432], [8.202930807419076, 48.926977361321256], [8.202960537053071, 48.92696719850667], [8.202988611783196, 48.92695516448512], [8.203014761232664, 48.92694137515213], [8.204138204938765, 48.92628683764253], [8.204390207531768, 48.92614649802057], [8.20454673399372, 48.926318669644], [8.204559410477648, 48.92633158910073], [8.204680910139045, 48.9264465893915], [8.20469761663349, 48.92646111006795], [8.20493871629466, 48.92665391061209], [8.204957366925258, 48.92666763801791], [8.20519056687054, 48.92682573850828], [8.205216225645144, 48.92684143609452], [8.205465125890136, 48.926978736564564], [8.205486302515467, 48.926989516581166], [8.205702302896478, 48.927090816950646], [8.205718209019793, 48.92709784213779], [8.205940909521189, 48.92719034248886], [8.205946792529922, 48.92719252791416], [8.205952471150242, 48.92719493666799], [8.206101944632652, 48.92725170608402], [8.206227412600798, 48.92730466465981], [8.206234454129868, 48.92730732513463], [8.206241282348223, 48.92731021696658], [8.206242595353935, 48.927310659794784], [8.206243843005423, 48.92731117821352], [8.20625025044741, 48.92731329339872], [8.206256467494448, 48.92731564236255], [8.20626387087208, 48.92731783523915], [8.206271096380899, 48.927320272135695], [8.206483597067274, 48.92738347239579], [8.206489803392898, 48.92738526954887], [8.206695863786395, 48.927443335749146], [8.20689291169043, 48.9275003759784], [8.207282910948654, 48.92764239655344], [8.2070329867411, 48.927878127733685], [8.20690649295922, 48.92782449043325], [8.206903475873952, 48.927823225763845], [8.206200677462629, 48.927532026869834], [8.206171484005553, 48.927521209809555], [8.206140822061895, 48.92751233031412], [8.206108986920032, 48.92750547389684], [8.20607628516632, 48.92750070658791], [8.206043031732607, 48.92749807429852], [8.206009546863449, 48.92749760237868], [8.205976153032115, 48.92749929537317], [8.205943171835177, 48.927503136977705], [8.205910920895516, 48.92750909019603], [8.205879710803591, 48.92751709769608], [8.205849842126444, 48.9275270823622], [8.205821602513177, 48.92753894803772], [8.205795263924848, 48.92755258045097], [8.205771080015406, 48.92756784831574], [8.205749283688894, 48.927584604595545], [8.20573008485648, 48.92760268791966], [8.20571366841487, 48.92762192413711], [8.205700192465585, 48.92764212799382], [8.205689786792286, 48.927663104916675], [8.205682551610765, 48.92768465288731], [8.205678556603685, 48.92770656438757], [8.205677840249342, 48.92772862839811], [8.205680409450942, 48.92775063243052], [8.205686239469948, 48.92777236457374], [8.205695274164167, 48.9277936155349], [8.20570742652827, 48.927814180654906], [8.20572257953156, 48.92783386187949], [8.205740587244913, 48.927852469666554], [8.205761276246063, 48.92786982481166], [8.205784447289675, 48.92788576017391], [8.205809877226153, 48.927900122285656], [8.205837321150682, 48.92791277283048], [8.206026786869504, 48.927991276677545], [8.205963557173142, 48.928027904148614], [8.205939867328134, 48.92804302532442], [8.205918503239033, 48.928059582637644], [8.20589966443095, 48.928077421456805], [8.205883526845547, 48.92809637518207], [8.205563124928945, 48.92851937433088], [8.205561238755344, 48.92852190401081], [8.205427237905466, 48.928704503652405], [8.205414918275345, 48.92872346383997], [8.205405286731432, 48.928743087986106], [8.20539918664243, 48.92875778796839], [8.20539681673305, 48.928764843311484], [8.205394085181798, 48.928771841664116], [8.205393199757031, 48.92877561123663], [8.205391948745959, 48.92877933556146], [8.20539063977817, 48.928786509989784], [8.205388962431652, 48.92879365105876], [8.205388642020239, 48.92879745966417], [8.205387951051513, 48.928801246851016], [8.205387715632709, 48.928808471271154], [8.205387108646097, 48.92881568628411], [8.205383816252038, 48.92916064231541], [8.205373292804172, 48.92960584493385], [8.205366055638404, 48.929604412154596], [8.205333188140058, 48.92960016387392], [8.205299846939496, 48.929598058728466], [8.20526635312647, 48.929598116991635], [8.205233029260377, 48.92960033810228], [8.205200196264018, 48.929604700670204], [8.205168170333096, 48.929611162681994], [8.205137259891227, 48.929619661905726], [8.2051077626198, 48.92963011649021], [8.205079962591244, 48.929642425753244], [8.205054127533366, 48.929656471151205], [8.205030506251044, 48.92967211742061], [8.20500932623012, 48.929689213880756], [8.204990791446615, 48.92970759588475], [8.204975080402269, 48.9297270864052], [8.20496234440542, 48.92974749773887], [8.204952706113733, 48.92976863331452], [8.204946258352816, 48.929790289585746], [8.204943063222125, 48.92981225799143], [8.204943151496758, 48.92983432696406], [8.204946522330907, 48.92985628396742], [8.204953143265845, 48.92987791754326], [8.20496295054235, 48.929899019347936], [8.204975849714595, 48.92991938615873], [8.204991716559565, 48.92993882183114], [8.205010398273284, 48.92995713918786], [8.205031714942303, 48.92997416182143], [8.205055461276302, 48.92998972579318], [8.205081408585116, 48.93000368121215], [8.205109306981145, 48.93001589367864], [8.205138887785935, 48.93002624557863], [8.205384215544392, 48.930102175902114], [8.205367790570865, 48.930486390608735], [8.204950193510038, 48.93048631624688], [8.204915987201664, 48.930487442276345], [8.204882124380234, 48.930490821375265], [8.204848946015582, 48.9304964195189], [8.204816786185916, 48.930504180338744], [8.204785968714042, 48.93051402568983], [8.20475680390685, 48.93052585643773], [8.204729585430865, 48.93053955345668], [8.204704587355318, 48.93055497882899], [8.204682061392521, 48.93057197723374], [8.204662234363305, 48.93059037751073], [8.204645305913091, 48.93060999438383], [8.204631446501537, 48.93063063032654], [8.204615546354443, 48.93065793028221], [8.204604349416043, 48.93068071420729], [8.204596893230267, 48.93070415347322], [8.204593262361183, 48.93072798226101], [8.204593497991116, 48.93075193033379], [8.204597128582238, 48.93079191525227], [8.204405233651734, 48.93082384566891], [8.20394868419324, 48.93088925049159], [8.203912547228452, 48.93089581531708], [8.203877720819772, 48.930904951571506], [8.203844625039832, 48.93091654905448], [8.203813659087373, 48.93093046787845], [8.203749259185097, 48.93096296776406], [8.203724938293579, 48.93097647129488], [8.203702630673918, 48.93099140779313], [8.203682530026718, 48.93100764756401], [8.203664810889782, 48.93102504959626], [8.203649627122543, 48.9310434627864], [8.203637110570032, 48.93106272725083], [8.203627369917987, 48.93108267571407], [8.203620489749008, 48.93110313496121], [8.203610063545135, 48.93114281144678], [8.203467770665455, 48.931149124331675], [8.20343450203629, 48.931151685554426], [8.203401774617232, 48.93115638296222], [8.203369903587271, 48.93116317131706], [8.203339195878318, 48.931171985244134], [8.20330994721942, 48.93118273986156], [8.203282439288854, 48.93119533159768], [8.203256937001486, 48.9312096391885], [8.20323368595756, 48.9312255248455], [8.203212910077463, 48.93124283558253], [8.20319480944524, 48.9312614046891], [8.203179558381642, 48.93128105333588], [8.203167303765253, 48.931301592296784], [8.203158163617877, 48.9313228237714], [8.203152225967793, 48.93134454328978], [8.203149548001859, 48.93136654168159], [8.203150155514617, 48.93138860709055], [8.203154042659717, 48.93141052701466], [8.20316117200604, 48.9314320903528], [8.203171474898038, 48.93145308943763], [8.203184852116754, 48.93147332203572], [8.203201174835236, 48.931492593295026], [8.203220285859079, 48.93151071762164], [8.203242001140222, 48.93152752046702], [8.203266111549357, 48.93154284000922], [8.203292384889945, 48.931556528711276], [8.203320568134389, 48.93156845474208], [8.203350389860868, 48.93157850324617], [8.203381562867351, 48.9315865774498], [8.203413786937595, 48.931592599592996], [8.203446751732532, 48.93159651167844], [8.203480139779112, 48.931598276030144], [8.203513629527935, 48.931597875656145], [8.203794002485617, 48.93158543680285], [8.203833201014094, 48.93165468525959], [8.20384714357999, 48.931675912358344], [8.203864321639244, 48.931696083603384], [8.20388455347796, 48.93171498561369], [8.203907625077187, 48.9317324184345], [8.203933292376837, 48.931748197652745], [8.203961283857423, 48.931762156347766], [8.203991303412309, 48.93177414685722], [8.204046603565878, 48.93179374693488], [8.204075127907263, 48.93180276000918], [8.204104796269247, 48.931809994341116], [8.204135353784913, 48.93181538778388], [8.204166537948737, 48.931818894004806], [8.204198080871722, 48.931820482883516], [8.204229711582812, 48.931820140770675], [8.20426115835676, 48.93181787060518], [8.204292151048499, 48.931813691888976], [8.204476710436866, 48.93178287352466], [8.204403988799237, 48.93202469161082], [8.204398888117886, 48.932047992591066], [8.20439751255139, 48.93207151722288], [8.204405210057088, 48.932437417232364], [8.204406866105668, 48.9324566437081], [8.204411012682701, 48.9324757063416], [8.204417619384238, 48.93249446534691], [8.204469001577339, 48.93261638943349], [8.204466228383664, 48.932616622409974], [8.204466202008863, 48.93261662549871], [8.204466175301746, 48.93261662687208], [8.204465333996138, 48.932616725486525], [8.2044644824148, 48.93261677210225], [8.204448873152506, 48.93261865487059], [8.204433249350846, 48.932620484564545], [8.20443322356233, 48.93262048934171], [8.204433197188346, 48.93262049243316], [8.204432374604703, 48.93262064490336], [8.204431534058486, 48.93262074628892], [8.204314934542326, 48.9326387462134], [8.204282736042572, 48.932644829002335], [8.204251597505555, 48.93265296184712], [8.204221818809236, 48.932663066424944], [8.204193686736199, 48.93267504542435], [8.204167472211873, 48.9326887834823], [8.20414342769545, 48.932704148295166], [8.204121784748605, 48.9327209918928], [8.204102751805426, 48.93273915206357], [8.204086512165059, 48.932758453916406], [8.204073222226384, 48.93277871156515], [8.204063009981715, 48.93279972991859], [8.204055973784055, 48.93282130655935], [8.20405218139976, 48.93284323369318], [8.20405166935578, 48.93286530015012], [8.204054442587701, 48.932887293418226], [8.204060474392056, 48.93290900169007], [8.204069706683335, 48.932930215902644], [8.20408205055321, 48.93295073175078], [8.204097387126644, 48.93297035165466], [8.204115568706593, 48.93298888666278], [8.204136420196312, 48.93300615827156], [8.204159740785562, 48.933022000144625], [8.204185305884492, 48.933036259714676], [8.204212869286538, 48.93304879965282], [8.204242165539572, 48.933059499191295], [8.204272912502397, 48.933068255286486], [8.204293887216682, 48.933072679041736], [8.204921443193067, 48.93399480878973], [8.20492468650664, 48.93399943336391], [8.204936483416523, 48.93401576577999], [8.204877466964987, 48.93401679513812], [8.2048724484014, 48.934016907012555], [8.203808594668374, 48.93404578055567], [8.203802332514288, 48.934045748605826], [8.203656956248526, 48.933792537963875], [8.203645950941862, 48.93377551967048], [8.203521150109971, 48.933602619996805], [8.203354909883426, 48.933372466252706], [8.203339049442452, 48.933353027941706], [8.203320373535966, 48.9333347074691], [8.203299062024831, 48.93331768126976], [8.203275320151407, 48.9333021133139], [8.203249376562926, 48.93328815352803], [8.203221481109502, 48.93327593635112], [8.203191902437947, 48.93326557943998], [8.203160925404653, 48.933257182536124], [8.203128848332332, 48.9332508265053], [8.203095980137132, 48.9332465725588], [8.203062637353751, 48.93324446166385], [8.203029141087175, 48.93324451414928], [8.202995813920436, 48.93324672950956], [8.20296297680812, 48.93325108640987], [8.202930945985562, 48.933257542891376], [8.202900029923493, 48.9332660367754], [8.202870526357417, 48.93327648626221], [8.202842719420387, 48.93328879071866], [8.202816876906741, 48.933302831647445], [8.202793247693151, 48.93331847382811], [8.202772059341848, 48.93333556661932], [8.202753515909071, 48.93335394540955], [8.202737795979857, 48.933373433202306], [8.202725050948105, 48.93339384232068], [8.202715403558496, 48.93341497621471], [8.20270894672425, 48.93343663135426], [8.20270574263221, 48.93345859918904], [8.202705822143772, 48.933480668157074], [8.202709184497525, 48.933502625722156], [8.202715797316412, 48.933524260420704], [8.202725596919375, 48.933545363898155], [8.202738488934491, 48.933565732915774], [8.202901158206883, 48.93379094663114], [8.202867158595105, 48.93377189111827], [8.20266950486827, 48.93359918939723], [8.202592873848788, 48.93345351558403], [8.202572872820877, 48.93319859128125], [8.202571520760635, 48.93318977804328], [8.20257042815637, 48.93318094920339], [8.202476725023326, 48.932710349459505], [8.202470336613244, 48.932687495660986], [8.202460402743785, 48.93266519823443], [8.202447029492577, 48.932643695269796], [8.20243035966215, 48.93262321637351], [8.202157258544762, 48.9323257170533], [8.202156701663865, 48.93232517266085], [8.202156223346263, 48.932324596755215], [8.202147342724686, 48.93231602360249], [8.20213853814642, 48.93230741647311], [8.202137902959604, 48.93230691066518], [8.202137341269463, 48.932306368422125], [8.202127228010239, 48.93229841005733], [8.202117185373432, 48.9322904129686], [8.20211647799789, 48.932289950616315], [8.202115838344671, 48.93228944725795], [8.202104589844607, 48.93228218032396], [8.20209340586552, 48.93227487029142], [8.20209263311371, 48.93227445584748], [8.2020919216576, 48.93227399622134], [8.202079646246398, 48.93226749070227], [8.202067428632342, 48.932260938124664], [8.202066597946114, 48.93226057558025], [8.202065821538971, 48.932260164112854], [8.202052637435862, 48.932254482659914], [8.202039503848011, 48.93224875064131], [8.202038623227384, 48.93224844348794], [8.202037789346301, 48.93224808414183], [8.20163633446628, 48.93209305846762], [8.20127298344634, 48.93192554483672], [8.20126292397575, 48.931921080433746], [8.2003959258373, 48.93155088182711], [8.200394819653795, 48.93155041148485], [8.199667949906855, 48.93124265353032], [8.199434738141631, 48.93113533329735], [8.19940426028702, 48.93112282569711], [8.19937195682149, 48.931112496917926], [8.199338185247559, 48.931104461268106], [8.198702123640503, 48.93097760144117], [8.198070664226769, 48.93081239182995], [8.198029227666899, 48.930803521927245], [8.197321605449696, 48.93068434072327], [8.197105348991355, 48.93059623347372], [8.195805179110522, 48.92989071025788], [8.195784406246487, 48.92988029014711], [8.19505341220729, 48.92954188829233], [8.19505341220729, 48.9300915689282], [8.195381303189107, 48.9302433613486], [8.196689220792107, 48.93095309178669], [8.196726693926657, 48.93097076975127], [8.197006994577363, 48.93108497018727], [8.197037234119307, 48.93109593815466], [8.197069000404273, 48.931104837578204], [8.19710196851641, 48.9311115774315], [8.197839022653092, 48.931235716059895], [8.19846353696271, 48.93139910872953], [8.198490611368108, 48.93140533806889], [8.199088407421126, 48.931524566307154], [8.199282460854954, 48.931613866761225], [8.199293377350513, 48.93161868703618], [8.200025225162749, 48.93192855373574], [8.200886584659013, 48.932296345924904], [8.201256215797315, 48.93246675545159], [8.201267827860212, 48.93247156759866], [8.201279308273662, 48.93247651496767], [8.201617934530429, 48.93260727912095], [8.201809186546917, 48.93281561999157], [8.201891821483851, 48.93323066040947], [8.201913625084115, 48.933508607766115], [8.201915094183159, 48.93351818467429], [8.201916380830058, 48.9335277729752], [8.201916777847531, 48.933529160312155], [8.201916993317361, 48.93353056493821], [8.201919880112326, 48.933540000859274], [8.201922587028328, 48.933549459900455], [8.201923188530351, 48.93355081491837], [8.20192361193081, 48.93355219886609], [8.201927888622063, 48.93356140292674], [8.201931989739816, 48.933570641612235], [8.20204208854599, 48.933779941911176], [8.202055456308507, 48.93380163299501], [8.202072174372017, 48.933822290929356], [8.20209206156081, 48.93384169183669], [8.202344761027724, 48.93406249242594], [8.20236894762462, 48.93408137173596], [8.202396131579256, 48.93409838915954], [8.202706231858024, 48.93427218975059], [8.202708675432822, 48.934273428425826], [8.202710960688227, 48.934274791982254], [8.2027219447943, 48.934280154812704], [8.202732780184775, 48.93428564739261], [8.202735396276342, 48.93428672230367], [8.202737873389884, 48.93428793171842], [8.20298227388624, 48.934395432119224], [8.203007722159805, 48.9344055978195], [8.203034417744721, 48.934414264444875], [8.203062157703087, 48.9344213661121], [8.203258158436427, 48.93446516630069], [8.203290297600018, 48.93447120999307], [8.203323179847864, 48.9344751538615], [8.20352118071247, 48.934492353942005], [8.203521459252713, 48.93449236673621], [8.203521804712038, 48.93449240776196], [8.20355519433801, 48.934494175003366], [8.203559670253222, 48.93449412188399], [8.203563029249159, 48.93449427617292], [8.203693929837033, 48.934494976179124], [8.203693993186043, 48.93449497446815], [8.203694056485649, 48.93449497684083], [8.2038116570138, 48.93449557684628], [8.203828346905285, 48.934495393081924], [8.20458785743353, 48.93447477964453], [8.20458944663294, 48.934480686757716], [8.204599211811987, 48.93450312283405], [8.204612454083492, 48.934524771234216], [8.204629030805298, 48.93454539876031], [8.204710430463003, 48.93463509896351], [8.204726986367955, 48.93465164183626], [8.204745688337246, 48.93466716032588], [8.204766391171415, 48.93468153394738], [8.20478893413594, 48.93469465110441], [8.20489643426174, 48.934751851303275], [8.204930030276586, 48.93476761699464], [8.204966267416884, 48.934780597790564], [8.205257968335216, 48.93487049815805], [8.205288970008407, 48.934878857114356], [8.20532106601453, 48.93488517383677], [8.205353947247904, 48.93488938749095], [8.205387297040275, 48.93489145749659], [8.205420794210665, 48.93489136391808], [8.205454116158686, 48.93488910765666], [8.205486941971518, 48.93488471044162], [8.205518955514638, 48.934878214621044], [8.20554984847653, 48.93486968275405], [8.205579323338021, 48.934859197008144], [8.205607096237685, 48.93484685836799], [8.205632899705659, 48.934832785662714], [8.205656485239597, 48.93481711442156], [8.205677625697916, 48.93479999556856], [8.205696117487298, 48.934781593969], [8.205711782523354, 48.934762086841666], [8.205724469945634, 48.93474166205205], [8.205734057570387, 48.93472051630302], [8.205740453067147, 48.934698853240505], [8.205743594847783, 48.9346768814922], [8.205743452659476, 48.934654812658344], [8.205740027875903, 48.934632859273854], [8.20573335348385, 48.93461123276158], [8.205723493765358, 48.934590141396114], [8.205710543678505, 48.93456978829806], [8.205694627942762, 48.93455036947791], [8.20567589983777, 48.934532071948325], [8.205654539727071, 48.934515071923215], [8.20563075332105, 48.93449953312073], [8.2056047696958, 48.93448560518663], [8.205576839086985, 48.93447342225314], [8.205547230479981, 48.93446310164725], [8.205524211180364, 48.93445600726425], [8.205539612680575, 48.93445562015331], [8.205540082965832, 48.934455608118824], [8.205702545886657, 48.934451376649726], [8.205965082266017, 48.93482326621536], [8.206063119123572, 48.935082753131134], [8.20611093047348, 48.93522961905562], [8.205843040466101, 48.935197541313016], [8.205809828512528, 48.93519466500307], [8.20577634855893, 48.935193947226104], [8.205742923031242, 48.935195394894635], [8.205709873831275, 48.93519899406692], [8.20567751923678, 48.935204710081464], [8.205646170836424, 48.93521248789055], [8.205616130529163, 48.935222252590584], [8.205587687616921, 48.935233910143246], [8.205561116018542, 48.935247348281194], [8.205536671631895, 48.935262437589216], [8.20551458986947, 48.93527903275036], [8.205495083391243, 48.93529697394562], [8.20547834005662, 48.93531608839279], [8.205464521115207, 48.935336192010546], [8.205453759653789, 48.93535709119112], [8.205446159314537, 48.935378584664875], [8.20544179329674, 48.93540046543855], [8.205440703651712, 48.93542252278871], [8.205442900877646, 48.93544454429115], [8.205448363818347, 48.93546631786658], [8.20545703986682, 48.93548763382313], [8.205468845471746, 48.93550828687581], [8.205483666941964, 48.935528078123525], [8.205501361541282, 48.935546816964624], [8.205521758862973, 48.93556432293256], [8.205544662470835, 48.935580427433926], [8.20556985179092, 48.9355949753722], [8.205597084235768, 48.93560782664134], [8.205626097540694, 48.93561885747525], [8.205656612289573, 48.93562796163975], [8.205688334605862, 48.935635051455705], [8.205720958982903, 48.93564005864341], [8.206108460634054, 48.935686458855386], [8.206142413231271, 48.935689374439676], [8.206176638373792, 48.935690034417064], [8.20621079169069, 48.93568843214683], [8.206239475203962, 48.93568516028633], [8.206280715377122, 48.935857028910306], [8.206104944441735, 48.93606459959545], [8.206393573855268, 48.93606459959545], [8.20640642775248, 48.93606459959545], [8.2068866900238, 48.93606459959545], [8.206927237511394, 48.93606459959545], [8.207211941133611, 48.93606459959545], [8.207138988677272, 48.93599189189497], [8.207277977061796, 48.93593027065926], [8.207303111441698, 48.93591798801263], [8.20732643276446, 48.93590424048496], [8.207347745015722, 48.93588914362435], [8.207366869067855, 48.93587282431991], [8.207383644185525, 48.93585541973529], [8.207397929376613, 48.93583707615573], [8.207417949336522, 48.93580817872782], [8.207496703631621, 48.93606459959545], [8.207991284649218, 48.93606459959545], [8.208193234554775, 48.93606459959545], [8.208676355685581, 48.93606459959545], [8.208707962155529, 48.93581521195946], [8.208709108034938, 48.93579315583997], [8.208706966931874, 48.935771131931325], [8.20870155947063, 48.935749352335655], [8.208692937732122, 48.935728026801925], [8.208681184752182, 48.935707360706026], [8.208666413721716, 48.935687553072825], [8.208648766896491, 48.935668794659556], [8.208628414227045, 48.93565126611876], [8.208605551721869, 48.93563513625848], [8.208580399559716, 48.93562056041669], [8.208553199969145, 48.93560767896529], [8.208524214895732, 48.93559661595838], [8.208493723479455, 48.93558747793752], [8.208462019366502, 48.93558035290576], [8.208429407881411, 48.93557530948018], [8.208396203086744, 48.935572396231066], [8.208362724758661, 48.935571641214196], [8.208329295307445, 48.93557305170069], [8.208296236672687, 48.93557661410697], [8.208263867222998, 48.93558229412552], [8.208232498690105, 48.935590037055334], [8.20820243316684, 48.935599768328686], [8.20817396019795, 48.9356113942292], [8.208147353991741, 48.93562480279437], [8.208122870779352, 48.935639864893716], [8.208100746347178, 48.9356564354724], [8.208081193766105, 48.935674354948105], [8.208075398092237, 48.93568094559937], [8.207985985207346, 48.9353898335798], [8.207948011278832, 48.93521948537541], [8.208564934908974, 48.93510099608506], [8.208567800792284, 48.93510043665566], [8.208909703978225, 48.935032620700035], [8.208909703978225, 48.93496392192958], [8.208909703978225, 48.9345629122342], [8.208909703978225, 48.933931745644735], [8.208600569732498, 48.93350104330329], [8.208195099938825, 48.93293207956272], [8.208181134865967, 48.932904193154265], [8.208180696138818, 48.93290128259024], [8.208181811467773, 48.93289985142516], [8.208198237076129, 48.93288712214023], [8.208258156503275, 48.932857727645185], [8.208368239326802, 48.93282236600159], [8.20861830338238, 48.93276825584216], [8.208658776461517, 48.93275756655531], [8.20885187707207, 48.932696866314515], [8.208877898127213, 48.93268775826089], [8.208909703978225, 48.93267543716227], [8.208909703978225, 48.93214987157021], [8.208806516458584, 48.93219366079505], [8.208544615042923, 48.93229511714705], [8.208384541921056, 48.93234543528238], [8.208384345042155, 48.932345477883985], [8.208255836007723, 48.93221331771085], [8.208909703978225, 48.931940973590784], [8.208909703978225, 48.93170134632459], [8.208909703978225, 48.93169008148133], [8.208909703978225, 48.931408872071465], [8.208909703978225, 48.93123935065666], [8.208909703978225, 48.931239344841586], [8.208909703978225, 48.93115366501213], [8.208909703978225, 48.930871202913245], [8.208909703978225, 48.93083921551876], [8.208909703978225, 48.93083909708642], [8.208909703978225, 48.93050509505709], [8.208909703978225, 48.930098650214056], [8.208812832117312, 48.9302244418826], [8.208805377621355, 48.930234763793905], [8.20879767756492, 48.930246163772956], [8.208795890115043, 48.930248857361555], [8.208687689274166, 48.93041485706545], [8.208680019801264, 48.93042769599001], [8.208670823105667, 48.930444595233745], [8.208659179752225, 48.930444612630424], [8.208625854057926, 48.930446825564935], [8.20859301803151, 48.93045118007745], [8.208560987897853, 48.930457634232134], [8.20853007212105, 48.93046612587275], [8.208500568433863, 48.93047657322112], [8.208472760970505, 48.93048887566476], [8.208446917530384, 48.930502914725686], [8.208423286999096, 48.93051855520148], [8.208402096951563, 48.9305356464672], [8.208383551460352, 48.93055402392599], [8.208367829130326, 48.93057351059425], [8.20831207939426, 48.93065163164397], [8.207981932993018, 48.93046501840114], [8.20795164701395, 48.930449748806026], [8.207918964748272, 48.93043680066446], [8.207386702626344, 48.930251772740945], [8.207646938369303, 48.929902893265954], [8.207668638896862, 48.92990952250231], [8.207699680636035, 48.92991781169022], [8.207731806012069, 48.92992405619247], [8.207764705636414, 48.92992819587031], [8.207798062663695, 48.92993019085583], [8.207831555843256, 48.929930021935945], [8.207864862613139, 48.92992769073745], [8.207897662206708, 48.929923219711355], [8.207929638741957, 48.92991665191659], [8.207960484263795, 48.929908050605405], [8.207989901709947, 48.929897498614146], [8.208017607771945, 48.92988509756544], [8.208043335623643, 48.92987096688941], [8.20806683749095, 48.92985524267366], [8.20808788703807, 48.929838076352326], [8.208106281547233, 48.929819633247874], [8.208121843870943, 48.929800090978816], [8.208134424137949, 48.92977963774902], [8.208143901196483, 48.92975847053531], [8.208150183780909, 48.929736793190294], [8.20815321139051, 48.929714814479176], [8.208152954872004, 48.92969274606925], [8.208149416700131, 48.929670800491394], [8.208142630953658, 48.92964918909321], [8.208132662987019, 48.929628120003755], [8.20811960880076, 48.92960779612908], [8.208103594116867, 48.929588413198225], [8.208084773167881, 48.92957015787821], [8.208063327211455, 48.92955320597649], [8.208039462784686, 48.9295377207477], [8.208013409715015, 48.9295238513217], [8.20798541890687, 48.9295117312672], [8.207955759925353, 48.92950147730569], [8.207634366564868, 48.92940329589198], [8.206948074710754, 48.92918287475718], [8.206521329977761, 48.9290290185934], [8.206487201773372, 48.929018287556715], [8.206253002575714, 48.928954887822066], [8.206221669479364, 48.92894755928489], [8.206189402847523, 48.92894227436942], [8.206156508893782, 48.92893908322997], [8.206123299784839, 48.92893801615072], [8.20606855242711, 48.92893801615201], [8.206069269166152, 48.928862813408635], [8.206174831407937, 48.92871896391445], [8.206454410535931, 48.92834985411921], [8.206724143752561, 48.9282820194898], [8.20693990651638, 48.92837350990164], [8.206945798646144, 48.928375952706865], [8.207563048276713, 48.92862610057451], [8.208626209508187, 48.92907272290314], [8.208625114035764, 48.92907368559225], [8.208607744909864, 48.929092555275005], [8.20859326642299, 48.92911245585836], [8.208581818013567, 48.92913319568994], [8.20857350993933, 48.929154575034765], [8.20856842221535, 48.92917638799873], [8.20856660384331, 48.92919842451156], [8.208568072339428, 48.92922047234973], [8.208572813565594, 48.929242319180425], [8.208580781865368, 48.929263754606325], [8.208591900503523, 48.92928457219194], [8.20860606240489, 48.92930457145169], [8.208623131185426, 48.929323559780684], [8.208642942465548, 48.9293413543097], [8.208665305453136, 48.929357783666354], [8.208690004780895, 48.92937268962559], [8.208716802580451, 48.92938592863344], [8.208745440773168, 48.92939737318962], [8.208775643555622, 48.92940691307561], [8.208807120055827, 48.92941445641592], [8.208839567134588, 48.92941993056316], [8.208872672305013, 48.92942328279759], [8.208906116742105, 48.929424480834925], [8.208909703978225, 48.929424377093355], [8.208909703978225, 48.92919181580891], [8.208909703978225, 48.92884128603202], [8.208909703978225, 48.92865841561535], [8.207927678439374, 48.92824587715908], [8.207922998529916, 48.92824394604247], [8.20761159222147, 48.92811774526162], [8.207880193969796, 48.92786439458854], [8.208909703978225, 48.928256537008856], [8.208909703978225, 48.927737027624396], [8.20830185469174, 48.92750549723504], [8.208909703978225, 48.92702629192179], [8.208909703978225, 48.9264412391585], [8.208891898385893, 48.926441710028925], [8.208858726274531, 48.92644475214716], [8.208826166404986, 48.92644992210481], [8.20879453234273, 48.926457170112954], [8.208764128737661, 48.92646642637021], [8.208735248390287, 48.92647760173477], [8.208708169432004, 48.926490588583015], [8.208683152646616, 48.92650526184585], [8.208660438958914, 48.9265214802131], [8.207698480364188, 48.92727984572395], [8.207265882493186, 48.92712231299868], [8.207175935151765, 48.92705089058033], [8.207152452440344, 48.927034063576635], [8.207126498551908, 48.927018894385704], [8.207098341671628, 48.927005539751654], [8.207068272747593, 48.92699413766859], [8.20690807321689, 48.92694033788448], [8.206879660158815, 48.92693185039028], [8.206850189639372, 48.92692510793449], [8.206819907897053, 48.92692016685302], [8.2066458086308, 48.926897266956864], [8.20661641045486, 48.926894271213726], [8.206586728057045, 48.92689297372233], [8.20651495685511, 48.92689190251201], [8.206463386291528, 48.92687013524359], [8.206456450106847, 48.926867514564094], [8.206449727116649, 48.92686466283543], [8.206299177352596, 48.92680748480417], [8.206090292225072, 48.92672072305498], [8.205893005247127, 48.92662819929538], [8.205667814015944, 48.9265039780066], [8.20545658393345, 48.92636077317697], [8.205233181900113, 48.92618212643277], [8.205126261892143, 48.92608092696022], [8.204956318636272, 48.92589399991801], [8.204834850807535, 48.92573626480991], [8.204796865032913, 48.925672420722414], [8.204768886481403, 48.925672420722414], [8.204768411998561, 48.925672420722414], [8.204375880250828, 48.925672420722414]], [[8.205937509538263, 48.931009048311104], [8.205954871394832, 48.93098672118393], [8.205968350856919, 48.93096325884447], [8.205975557134401, 48.930944683530036], [8.206001372949894, 48.930946335503705], [8.206159344630315, 48.93099794639541], [8.206019275657411, 48.931169040342965], [8.205917775801975, 48.93121682283299], [8.205892371298466, 48.93123002415057], [8.205868978110894, 48.93124475107939], [8.205847806451445, 48.93126087128378], [8.205829046570276, 48.93127823990802], [8.2058128670459, 48.93129670087794], [8.205638179413233, 48.93151981516409], [8.20559412880768, 48.931554597552015], [8.20548615126538, 48.93148840543875], [8.205820449167769, 48.93114062350158], [8.205826710014485, 48.931133848594236], [8.205937509538263, 48.931009048311104]], [[8.206057820750424, 48.930319305128634], [8.2061092350381, 48.930335916239684], [8.206111047545164, 48.930336497457034], [8.206470762761153, 48.9304509815095], [8.206379669582933, 48.93056790416148], [8.20624842452702, 48.930525025106505], [8.20622004800798, 48.930516789980146], [8.206190654304093, 48.93051028563825], [8.206160486006487, 48.93050556576213], [8.206129792098869, 48.93050266930561], [8.206050202172477, 48.93049757631143], [8.206057820750424, 48.930319305128634]], [[8.207080114269269, 48.930653722338334], [8.2075665458597, 48.93082281887888], [8.208004165888378, 48.9310701820514], [8.208004755904897, 48.93107051478635], [8.20804865594347, 48.93109521487018], [8.208069968530221, 48.931106272254], [8.20809254656961, 48.93111617953441], [8.208266946982974, 48.93118627980308], [8.208268461351876, 48.93118682338285], [8.208269892747536, 48.93118745046919], [8.208282935887322, 48.93119201898918], [8.208296274870426, 48.93119680699121], [8.208382075133866, 48.93122410710206], [8.208417893188377, 48.93123389221245], [8.208437286011856, 48.9312375579601], [8.208444881635053, 48.931260881098524], [8.20845200228328, 48.931279024088354], [8.208461390849616, 48.93129671346736], [8.20848434601981, 48.93133479244491], [8.208365092191803, 48.93141224531581], [8.20834242053247, 48.93142849052797], [8.208322274746045, 48.93144612166576], [8.208304848848627, 48.931464968933035], [8.208290310663088, 48.93148485082158], [8.208278800202772, 48.93150557585908], [8.208270428322987, 48.93152694445297], [8.208265275653282, 48.93154875081278], [8.208263391820795, 48.93157078493176], [8.20826479497216, 48.93159283460948], [8.208269471598578, 48.93161468749539], [8.208277376665746, 48.93163613313389], [8.208288434047411, 48.93165696499115], [8.20829424764252, 48.93166521654231], [8.20816775644206, 48.93171790154686], [8.208171783809155, 48.9317147556711], [8.208182314706988, 48.9317065753397], [8.208182581231325, 48.93170632153836], [8.208182883248673, 48.93170608562516], [8.20819210973697, 48.93169724789209], [8.208201372963691, 48.9316884268612], [8.208201600447483, 48.93168815706972], [8.20820186591457, 48.931687902788006], [8.20820973321748, 48.9316785117581], [8.20821763956542, 48.93166913497876], [8.208217825817977, 48.931668851795315], [8.208218052178156, 48.93166858159405], [8.208224484528953, 48.931658727710406], [8.208230957858165, 48.93164888548496], [8.208231101085813, 48.93164859163675], [8.208231286159146, 48.931648308118156], [8.208236221612923, 48.93163808627888], [8.20824119958242, 48.931627873394554], [8.208241298405806, 48.93162757171158], [8.20824144041002, 48.93162727760605], [8.208244831437947, 48.93161678625198], [8.20824826610828, 48.93160630106627], [8.208248319575732, 48.93160599445393], [8.208248417143302, 48.93160569259386], [8.208250231089476, 48.931595032762914], [8.208252089385164, 48.931584376254065], [8.208252096981829, 48.93158406766521], [8.208252149173175, 48.93158376095769], [8.208252368570047, 48.931573035311054], [8.20825263259704, 48.93156231010618], [8.208252594249817, 48.93156200251264], [8.208252600562362, 48.93156169391148], [8.208251223299207, 48.93155100574342], [8.208249890516797, 48.93154031513176], [8.208249806595052, 48.93154001149586], [8.208249766968068, 48.93153970397302], [8.20824680631077, 48.93152915621585], [8.208243889556446, 48.93151860315423], [8.20824376086845, 48.931518306400136], [8.208243675683624, 48.93151800291724], [8.208239160146986, 48.931507697151574], [8.208234687512574, 48.93149738327133], [8.208234515297718, 48.93149709625694], [8.20823438537548, 48.93149679973667], [8.208228358448263, 48.93148683521201], [8.20822237300959, 48.931476859841396], [8.208222158926459, 48.93147658533083], [8.208221985518064, 48.9314762986288], [8.208214505244593, 48.93146677130877], [8.208207064646068, 48.93145723051529], [8.208206810756415, 48.93145697115218], [8.208206595531948, 48.93145669702953], [8.208197733952774, 48.93144769866703], [8.208188909852465, 48.931438684333095], [8.20818861860144, 48.93143844261525], [8.208188363633635, 48.93143818371188], [8.208118099343064, 48.931373970796145], [8.207917324854508, 48.93115781298091], [8.207897015235949, 48.93113832711955], [8.207722614892587, 48.930988527523766], [8.207716333060935, 48.93098357334583], [8.207712167969394, 48.930979993333246], [8.207708674048856, 48.93097753305204], [8.2077043945843, 48.93097415804454], [8.207694664048532, 48.9309676677617], [8.207689282979326, 48.93096387862474], [8.207687026539782, 48.93096257353121], [8.20768442315062, 48.93096083706649], [8.207668033654421, 48.930951588308105], [8.207664110920414, 48.93094931945282], [8.207663508645433, 48.93094903479979], [8.207662839045886, 48.93094865693799], [8.207545739198238, 48.930887957151235], [8.207517637928897, 48.93087484664034], [8.207487674829004, 48.9308636683573], [8.20703345193795, 48.93071361670077], [8.207080114269269, 48.930653722338334]], [[8.206711136208249, 48.93002799470175], [8.20695385727538, 48.929685087746], [8.207030454623307, 48.9297096891013], [8.206777310700618, 48.93004905555141], [8.206711136208249, 48.93002799470175]], [[8.205836034361532, 48.933987406828294], [8.205863356211237, 48.933974874618876], [8.20588869506334, 48.933960648438834], [8.205911809876822, 48.93394486361859], [8.205932480768054, 48.93392767031541], [8.20595051110247, 48.93390923208498], [8.205965729365051, 48.93388972432553], [8.205977990791833, 48.933869332609184], [8.2059871787469, 48.93384825091671], [8.205993205831787, 48.93382667979221], [8.205996014716742, 48.933804824435306], [8.205995578685933, 48.93378289274925], [8.205975377228421, 48.93356809280074], [8.205971667709155, 48.9335461595088], [8.205964713013426, 48.9335245713848], [8.205954580122725, 48.933503536333625], [8.20594136662588, 48.933483256933535], [8.205925199779099, 48.933463928485224], [8.205906235280294, 48.933445737131024], [8.20588465576954, 48.93342885806231], [8.205860669070091, 48.93341345383237], [8.205834506186903, 48.93339967279093], [8.205806419081918, 48.93338764765555], [8.20577667824759, 48.93337749423361], [8.205745570101943, 48.9333693103069], [8.205713394230306, 48.93336317469013], [8.205680460500277, 48.93335914647187], [8.205647086077649, 48.93335726444555], [8.2056135923721, 48.93335754673583], [8.205580301941994, 48.93335999062411], [8.205547535388147, 48.93336457257471], [8.205515608266408, 48.9333712484615], [8.205484828048863, 48.933379953992834], [8.205455491162825, 48.93339060533069], [8.205427880136202, 48.933403099898044], [8.20540226087669, 48.9334173173667], [8.205378880110995, 48.93343312081604], [8.205357963008746, 48.93345035805164], [8.205339711013988, 48.933468863070864], [8.205324668744066, 48.93348798869805], [8.205010117771266, 48.933025796449755], [8.205063315651758, 48.9330224523154], [8.20509329768029, 48.933119746110215], [8.205101565210509, 48.93314113236503], [8.205112974572353, 48.93316188173261], [8.205127415890777, 48.933181794384275], [8.205144750090737, 48.93320067854926], [8.205164810236449, 48.93321835236147], [8.205187403139004, 48.93323464561108], [8.20521231121682, 48.93324940138379], [8.205239294591072, 48.93326247757203], [8.205268093395858, 48.93327374824362], [8.205298430280903, 48.93328310485455], [8.205330013082675, 48.93329045729448], [8.205362537638184, 48.93329573475445], [8.205395690714361, 48.93329888640899], [8.205429153024822, 48.9332998819055], [8.205462602304914, 48.933298711656654], [8.205495716415477, 48.93329538693275], [8.205528176445386, 48.93328993975306], [8.20555966978299, 48.93328242257757], [8.20558989312688, 48.93327290780166], [8.205618555406998, 48.93326148705894], [8.20564538058787, 48.93324827033863], [8.205670110327086, 48.933233384926325], [8.205692506463313, 48.93321697417807], [8.205712353309941, 48.93319919613978], [8.205729459732247, 48.93318022202503], [8.205743660988068, 48.93316023456616], [8.205754820314295, 48.933139426254414], [8.205762830243863, 48.93311799748613], [8.205767613640587, 48.93309615463275], [8.205769124441881, 48.93307410805329], [8.205767348102215, 48.933052070068534], [8.205762301733015, 48.93303025291617], [8.205753343719742, 48.93300118480049], [8.205766683441322, 48.933001114800646], [8.205782340308488, 48.93300263215553], [8.206371457440055, 48.933847418639196], [8.205829139905255, 48.933989951224255], [8.205836034361532, 48.933987406828294]], [[8.205087178336527, 48.93240212953126], [8.205080584995603, 48.93208891883952], [8.205140202508598, 48.93189066657478], [8.205232680773328, 48.9319473576892], [8.205336385343122, 48.93201344671051], [8.20574617249726, 48.93233659052291], [8.20576798801052, 48.932352228881875], [8.205791945552232, 48.932366441425856], [8.205817831399889, 48.932379101365285], [8.205845414628106, 48.93239009576129], [8.205874449168709, 48.932399326533165], [8.20590467600594, 48.93240671133338], [8.206016376433318, 48.93243011143493], [8.206046907014828, 48.93243549560633], [8.206078062598992, 48.93243899606992], [8.206109576050196, 48.932440582811864], [8.206141177164264, 48.932440242226996], [8.206172594985329, 48.932437977235566], [8.206203560129197, 48.93243380725817], [8.206342012447324, 48.932410715563975], [8.20657068872359, 48.93237551556987], [8.20668255252202, 48.93265491830972], [8.206594251598206, 48.93263445600229], [8.206564960657609, 48.932628626120334], [8.206534994986814, 48.932624547950354], [8.206122896762986, 48.932581048150944], [8.206118571344676, 48.932580610284354], [8.20583997255307, 48.93255361040965], [8.205813846344709, 48.932551752043494], [8.205787580573404, 48.93255122343647], [8.205349282542201, 48.93255352343656], [8.205319580058754, 48.9325545330282], [8.205155747807327, 48.93256483189405], [8.205087178336527, 48.93240212953126]], [[8.204731562946758, 48.93127718075502], [8.204702947303785, 48.931281108450264], [8.204380752862681, 48.93133491003069], [8.204355996307733, 48.93129117574516], [8.204555818371484, 48.93126254917994], [8.204566872466167, 48.931260838198604], [8.204874573726071, 48.931209637984146], [8.20490402755936, 48.931203795018305], [8.20493256337633, 48.931196228607135], [8.20495994940791, 48.931187000205405], [8.204973114087958, 48.93118152689115], [8.204889677365282, 48.93126832802999], [8.204760583698112, 48.93127488062881], [8.204731562946758, 48.93127718075502]], [[8.206097284779352, 48.92983112694677], [8.206051013633118, 48.929816177531016], [8.20606110080793, 48.92938918614729], [8.206210281114268, 48.92942957056036], [8.206346708176284, 48.92947875730939], [8.206097284779352, 48.92983112694677]], [[8.208118861170567, 48.93388200759658], [8.208645220532917, 48.93461537208473], [8.208372431114736, 48.934669479411134], [8.207757844843895, 48.93478751972499], [8.207289241746352, 48.934093190792765], [8.208118861170567, 48.93388200759658]], [[8.206612242136503, 48.9331154015988], [8.206830349139267, 48.933165944333], [8.206860890118532, 48.93317198144564], [8.206892152900659, 48.9331761145226], [8.206923864657895, 48.93317830749483], [8.207138765617453, 48.933186507536305], [8.207142420382148, 48.93318653001565], [8.207146007599329, 48.93318673304841], [8.207158598091842, 48.93318662951978], [8.207171869259684, 48.933186711146675], [8.20717570719711, 48.93318648883568], [8.207179501327918, 48.93318645763745], [8.207191843092742, 48.93318555417037], [8.207204847137344, 48.93318480091628], [8.207208828836421, 48.93318431074527], [8.207212792799702, 48.93318402056713], [8.207224768698785, 48.93318234845272], [8.2072373890273, 48.93318079481467], [8.207241470042552, 48.93318001655617], [8.207245561395377, 48.933179445308035], [8.207257061520094, 48.93317704322745], [8.207269188807912, 48.933174730527256], [8.207566394483093, 48.93310760144797], [8.207568433243285, 48.933110975988235], [8.207827194781672, 48.93347408202365], [8.207007827530758, 48.933682655272406], [8.206612242136503, 48.9331154015988]], [[8.207350950094757, 48.932561001357854], [8.207422393718423, 48.93266466357014], [8.207394937435035, 48.932670865065596], [8.207350950094757, 48.932561001357854]], [[8.20714995609403, 48.93191119680722], [8.207159886902993, 48.93191998136118], [8.207278835070184, 48.93204231045817], [8.207264641220402, 48.932049745081464], [8.207240590982455, 48.932065105810004], [8.207218941704593, 48.932081945732484], [8.207199901881877, 48.93210010267262], [8.207183654879708, 48.93211940177049], [8.207177745790313, 48.93212840263823], [8.207156293179192, 48.93207482214476], [8.20714995609403, 48.93191119680722]], [[8.207025865866102, 48.93152230142874], [8.207023698065404, 48.93151871642658], [8.207017725181931, 48.931511107393476], [8.207012980831976, 48.9315045835658], [8.207010577173119, 48.931502001333406], [8.207008310654677, 48.931499113948455], [8.207000597595844, 48.9314912803496], [8.206994552969357, 48.931484786653435], [8.206992267037378, 48.9314828196008], [8.206990081186115, 48.93148059958896], [8.206980416405074, 48.93147262208937], [8.20697312462125, 48.931466347483344], [8.206853124481775, 48.93137344775074], [8.206830022499604, 48.93135725704333], [8.206705505865719, 48.93127820863199], [8.206814919409586, 48.931144558276785], [8.206860081044653, 48.93115947734626], [8.206852036762154, 48.93117001268501], [8.206839988836501, 48.93119060466496], [8.206831062265247, 48.931211875556784], [8.206825343019846, 48.93123362051093], [8.206822886183824, 48.9312556301121], [8.20682371542213, 48.931277692396016], [8.206827822753068, 48.93129959489077], [8.206835168625004, 48.93132112666307], [8.206845682297098, 48.931342080349566], [8.206859262520437, 48.931362254153996], [8.206875778512979, 48.93138145379058], [8.20689507121894, 48.93139949435506], [8.206916954840498, 48.931416202105694], [8.206941218627088, 48.93143141613624], [8.206967628904998, 48.931444989925915], [8.206995931327794, 48.9314567927503], [8.207025853325856, 48.93146671094046], [8.20705710673143, 48.931474648977655], [8.207089390553952, 48.93148053041327], [8.207122393878867, 48.93148429860515], [8.207155798862054, 48.931485917263004], [8.207189283790983, 48.93148537079808], [8.207222526183166, 48.93148266447318], [8.207255205891983, 48.93147782435201], [8.20728700819005, 48.93147089704814], [8.207294962555018, 48.931468572519265], [8.20716090914122, 48.93152884622891], [8.207155278214936, 48.93153165441446], [8.207149414384183, 48.931534247427166], [8.207141932404463, 48.93153831007113], [8.207134201823507, 48.93154216537036], [8.20712901576897, 48.931545323681604], [8.207123565921178, 48.931548282897225], [8.207116724345338, 48.931552809168146], [8.207109604519308, 48.931557145147735], [8.207104913281233, 48.93156062316851], [8.207099929900977, 48.93156392008864], [8.207093794617242, 48.93156886639634], [8.207087354113732, 48.93157364129896], [8.207083202871106, 48.9315774055345], [8.207078733951358, 48.93158100840816], [8.207073364046035, 48.931586327117344], [8.20706913223434, 48.93159016441076], [8.207028211681576, 48.93152552709634], [8.207025865866102, 48.93152230142874]], [[8.207264765294367, 48.93524981379017], [8.207243044620977, 48.9352526719419], [8.207207769666141, 48.935258618310385], [8.207173656810866, 48.93526700633762], [8.207141094212151, 48.93527774057966], [8.207054394444135, 48.93531024045505], [8.207024853033813, 48.93532267893094], [8.206997404017562, 48.93533704814122], [8.206972336961464, 48.93535319650268], [8.20694991630466, 48.93537095366343], [8.206930378569709, 48.93539013229988], [8.206913929867412, 48.93541053009282], [8.206900743722406, 48.93543193186166], [8.206879533836466, 48.93547217284363], [8.206856955797056, 48.93537808417282], [8.20685355244138, 48.93536603879577], [8.206729450008227, 48.93498483913909], [8.206726932836267, 48.93497767977308], [8.20661963106619, 48.93469368006933], [8.20661023748001, 48.93467307724917], [8.206597898856398, 48.934653160030564], [8.206371008666855, 48.93433176999623], [8.206653107179516, 48.934257628487785], [8.207236182858802, 48.935121587367476], [8.207264765294367, 48.93524981379017]], [[8.206467803080033, 48.931929473594266], [8.206183650180792, 48.931973213061696], [8.206177540010378, 48.931974192775485], [8.20617640326529, 48.93197438236765], [8.206145462912744, 48.931949984036116], [8.206149177188777, 48.931949704152345], [8.20618192516281, 48.93194505885388], [8.206466466670784, 48.93189495501752], [8.206467803080033, 48.931929473594266]]]}}]}